TDRS 3                  
1 19548U 88091B   17092.50430240 -.00000315  00000-0  00000-0 0  9990
2 19548  14.8847   8.9213 0038857 312.3637 348.9790  1.00266995 91648
SKYNET 4C               
1 20776U 90079A   17091.42641256  .00000114  00000-0  00000-0 0  9991
2 20776  13.7946  16.8806 0003272  56.5841 303.4181  1.00272510 97213
TDRS 5                  
1 21639U 91054B   17092.77372446  .00000070  00000-0  00000-0 0  9996
2 21639  14.3285  22.2167 0026014 343.8373 295.9774  1.00273589 93998
TDRS 6                  
1 22314U 93003B   17092.20119476 -.00000307  00000-0  00000-0 0  9997
2 22314  13.8498  25.1352 0007397 306.6886 245.5675  1.00274342 88652
INTELSAT 701 (IS-701)   
1 22871U 93066A   17092.24849118 -.00000238  00000-0  00000-0 0  9994
2 22871   4.0538  67.4009 0003793 299.0739 244.2589  1.00271635 85630
ASTRA 1D                
1 23331U 94070A   17092.37576101 -.00000305  00000-0  00000-0 0  9990
2 23331   7.4486  49.8288 0003920 309.8982 279.1373  1.00274353 82440
BRASILSAT B2            
1 23536U 95016A   17092.26966833 -.00000297  00000-0  00000-0 0  9991
2 23536   7.0738  51.7057 0002276 315.6042 212.5826  1.00272556 80674
AMSC 1                  
1 23553U 95019A   17091.87061781 -.00000130  00000-0  00000-0 0  9993
2 23553   9.9881  40.5514 0004816 333.2918  26.6635  1.00273035 80447
TDRS 7                  
1 23613U 95035B   17092.66492730 -.00000210  00000-0  00000-0 0  9997
2 23613  14.9451  15.9188 0032864 356.6653 141.3511  1.00303346 79530
ECHOSTAR 1              
1 23754U 95073A   17092.50395569 -.00000265  00000-0  00000-0 0  9990
2 23754   0.6537  90.4525 0002643 278.7969 285.9457  1.00270459 18694
INMARSAT 3-F1           
1 23839U 96020A   17092.00673292 -.00000013  00000-0  00000-0 0  9995
2 23839   3.8409  67.8402 0005929 306.9746 242.6235  1.00271814 76896
ASTRA 1F                
1 23842U 96021A   17092.61463286  .00000114  00000-0  00000-0 0  9998
2 23842   0.0499 341.9831 0003776  27.7096  87.0110  1.00273871 18630
MSAT M1                 
1 23846U 96022A   17091.90666379 -.00000101  00000-0  00000-0 0  9999
2 23846   7.6381  49.3685 0005483 323.4002  36.5682  1.00272720 76698
INMARSAT 3-F2           
1 24307U 96053A   17092.37114799 -.00000147  00000-0  00000-0 0  9992
2 24307   2.4737  78.0678 0006959 280.3487 310.5927  1.00272481 75305
AMC-1 (GE-1)            
1 24315U 96054A   17092.06840012  .00000037  00000-0  00000-0 0  9999
2 24315   1.4107  85.3832 0002761 283.2361  77.4447  1.00270860 12606
AFRICASAT-2 (MEASAT-2)  
1 24653U 96063B   17092.75604045 -.00000247  00000-0  00000-0 0  9998
2 24653   7.3708  50.2481 0007220 198.1414   3.0571  1.00271192 74747
EUTELSAT 48A            
1 24665U 96067A   17092.04504537  .00000096  00000-0  00000-0 0  9993
2 24665   6.2353  55.6049 0005374 305.0572 254.3854  1.00269614 74959
INMARSAT 3-F3           
1 24674U 96070A   17092.42184333  .00000015  00000-0  00000-0 0  9998
2 24674   3.2846  72.1170 0006197 305.5544 143.2309  1.00273798 74241
AMC-2 (GE-2)            
1 24713U 97002A   17092.38173065 -.00000231  00000-0  00000-0 0  9994
2 24713   4.1980  66.3207 0005049 304.0767 233.0756  1.00270284 24602
INTELSAT 26 (IS-26)     
1 24732U 97007A   17092.00673292 -.00000014  00000-0  00000-0 0  9995
2 24732   7.3452  50.5737 0004771 344.8885 221.7224  1.00271313 39018
GALAXY 25 (G-25)        
1 24812U 97026A   17091.73008814 -.00000185  00000-0  00000-0 0  9995
2 24812   0.0227 260.8682 0003777 113.9469 345.1871  1.00272621 72648
ABS-3                   
1 24901U 97042A   17091.96575927 -.00000211  00000-0  00000-0 0  9991
2 24901   4.7506  63.6875 0009023 307.0667 252.7645  1.00270478 71826
INTELSAT 5 (IS-5)       
1 24916U 97046A   17092.23294620 -.00000162  00000-0  00000-0 0  9995
2 24916   3.3995  71.4529 0003394 293.3261  66.8369  1.00273152 71890
METEOSAT-7              
1 24932U 97049B   17092.41463848  .00000031  00000-0  00000-0 0  9990
2 24932  10.5685  37.9188 0001301 323.7748  36.1919  1.00274550 71698
AMC-3 (GE-3)            
1 24936U 97050A   17092.50815138 -.00000283  00000-0  00000-0 0  9999
2 24936   0.2221  91.5608 0002726 265.3034 305.1024  1.00273118 18717
NSS-5                   
1 24957U 97053A   17092.61018132  .00000086  00000-0  00000-0 0  9996
2 24957   3.6944  69.6569 0003984 300.9169  90.7030  1.00273677 71525
ECHOSTAR 3              
1 25004U 97059A   17091.86770557 -.00000304  00000-0  00000-0 0  9992
2 25004   2.0009  80.5224 0001450 248.2193 112.2245  1.00273679 71330
JCSAT-1B                
1 25067U 97075A   17092.45139417 -.00000227  00000-0  00000-0 0  9993
2 25067   5.4298  59.3799 0004793 287.1094 156.9819  1.00271342 70833
ASTRA 1G                
1 25071U 97076A   17092.61668219  .00000083  00000-0  00000-0 0  9993
2 25071   2.1698  78.6379 0003164 287.2188  98.3927  1.00273937 70842
BRASILSAT B3            
1 25152U 98006A   17091.83790036 -.00000303  00000-0  00000-0 0  9999
2 25152   3.8904  68.7063 0003140 309.8524  50.2781  1.00273300  9794
INMARSAT 3-F5           
1 25153U 98006B   17092.19386235 -.00000309  00000-0  00000-0 0  9998
2 25153   2.4256  74.2963 0005116 293.9536 198.2443  1.00268349 70166
NSS-806                 
1 25239U 98014A   17092.35897675 -.00000302  00000-0  00000-0 0  9998
2 25239   0.0623  30.3751 0004603 335.4139 266.8524  1.00272087 69931
CHINASAT 5A (ZX 5A)     
1 25354U 98033A   17092.91772985 -.00000378  00000-0  00000-0 0  9998
2 25354   1.0825  87.5267 0003425 232.3017 327.5134  1.00268905 73527
THOR III                
1 25358U 98035A   17091.64917940 -.00000062  00000-0  00000-0 0  9995
2 25358   5.2948  59.5294 0002357 313.1379  46.9122  1.00271277 68983
INTELSAT 805 (IS-805)   
1 25371U 98037A   17092.59654007 -.00000056  00000-0  00000-0 0  9992
2 25371   0.0200 110.0944 0003047 266.1841 198.5953  1.00271376 68846
ASTRA 2A                
1 25462U 98050A   17092.74393685 -.00000384  00000-0  00000-0 0  9991
2 25462   0.0482 238.1558 0002365 119.0309 215.3799  1.00273558 12635
AFRISTAR                
1 25515U 98063A   17092.70743684  .00000102  00000-0  00000-0 0  9995
2 25515   3.1554  69.8941 0004396 306.9932  90.0125  1.00274448 67234
JCSAT-4A                
1 25630U 99006A   17092.61959749 -.00000180  00000-0  00000-0 0  9999
2 25630   2.1408  80.3696 0001842 278.2359 137.5314  1.00271877 66274
SKYNET 4E               
1 25639U 99009B   17092.05256505  .00000006  00000-0  00000-0 0  9995
2 25639  10.0668  29.1897 0002726 338.6241 207.6393  1.00273811 17672
ASIASAT 3S              
1 25657U 99013A   17092.83660493 -.00000260  00000-0  00000-0 0  9994
2 25657   2.3554  78.6158 0002956 289.5048 270.4619  1.00270768 66102
NIMIQ 1                 
1 25740U 99027A   17092.42828562 -.00000223  00000-0  00000-0 0  9999
2 25740   0.0466 277.0497 0006349  90.1780 251.4051  1.00275548 65482
ASTRA 1H                
1 25785U 99033A   17092.86130028  .00000115  00000-0  00000-0 0  9995
2 25785   3.6795  69.8116 0002575 286.6000 188.5188  1.00272174 17709
TELKOM 1                
1 25880U 99042A   17092.64048737 -.00000369  00000-0  00000-0 0  9994
2 25880   0.0203 147.7400 0001735 204.9225 177.0975  1.00272603 64673
ABS-7                   
1 25894U 99046A   17092.76291646 -.00000387  00000-0  00000-0 0  9995
2 25894   0.0085 220.6619 0002274 131.9612 229.3952  1.00269133 63429
ABS-6                   
1 25924U 99053A   17092.02892721 -.00000143  00000-0  00000-0 0  9997
2 25924   0.0278  85.9364 0002784 291.9378 342.1260  1.00272121 64167
TELSTAR 12 (ORION 2)    
1 25949U 99059A   17092.48798207 -.00000086  00000-0  00000-0 0  9990
2 25949   0.7759  88.9700 0002999 273.7671 254.7408  1.00271685 63811
AMC-4 (GE-4)            
1 25954U 99060A   17091.65776150 -.00000294  00000-0  00000-0 0  9990
2 25954   0.0551  78.5608 0001716 294.2650 347.1699  1.00270397 10015
GALAXY 11 (G-11)        
1 26038U 99071A   17092.61463826  .00000112  00000-0  00000-0 0  9994
2 26038   0.0303  19.3835 0001607 340.3408  97.6505  1.00270846 63382
HISPASAT 1C             
1 26071U 00007A   17092.35604932 -.00000236  00000-0  00000-0 0  9996
2 26071   0.4078  88.3088 0009098 288.3797 218.6257  1.00272483 13925
SUPERBIRD-B2            
1 26095U 00012A   17092.60187059 -.00000118  00000-0  00000-0 0  9991
2 26095   0.2407  95.5624 0003249 280.4747 193.7147  1.00272015 11471
ASIASTAR                
1 26107U 00016A   17092.72711278 -.00000357  00000-0  00000-0 0  9993
2 26107   1.5187  82.0295 0004349 285.3542 190.6195  1.00273847 62219
EUTELSAT 16C            
1 26243U 00019A   17091.82449314  .00000071  00000-0  00000-0 0  9998
2 26243   4.1238  66.7167 0003401 136.7642 298.2536  1.00265434 62061
EUTELSAT 80A            
1 26369U 00028A   17092.59353709 -.00000165  00000-0  00000-0 0  9999
2 26369   0.8574  84.8910 0003790 322.2760  78.1092  1.00270497 61760
TDRS 8                  
1 26388U 00034A   17092.37847152 -.00000248  00000-0  00000-0 0  9995
2 26388   7.3670  56.4743 0006309 251.3494 108.6050  1.00270543 61466
ECHOSTAR 6              
1 26402U 00038A   17092.50951017 -.00000169  00000-0  00000-0 0  9999
2 26402   4.0429  67.4810 0003582 290.9550 279.8094  1.00271246 61222
INTELSAT 9 (IS-9)       
1 26451U 00043A   17092.19818553 -.00000293  00000-0  00000-0 0  9999
2 26451   3.3856  71.6753 0002648 291.3940 215.8998  1.00270535 10424
BRASILSAT B4            
1 26469U 00046A   17091.96554726 -.00000191  00000-0  00000-0 0  9991
2 26469   1.5045  85.4739 0003278 292.7437  67.8904  1.00271173 61243
NILESAT 102             
1 26470U 00046B   17092.71716376 -.00000083  00000-0  00000-0 0  9998
2 26470   1.5238  83.9196 0004849 272.4388  86.0299  1.00271717 11478
ASTRA 2B                
1 26494U 00054A   17092.67660549  .00000095  00000-0  00000-0 0  9990
2 26494   2.0577  79.2735 0004935 300.8951  73.9901  1.00270044 60528
